GLOBALSTAR M094         
1 39074U 13005C   24343.89754904 -.00000093  00000+0  61176-4 0  9991
2 39074  51.9979  41.4922 0000572 155.2860 204.8034 12.62265925548343
GLOBALSTAR M096         
1 39075U 13005D   24343.83156016 -.00000085  00000+0  10326-3 0  9997
2 39075  52.0076  90.0579 0000939 135.9585 224.1356 12.62265401547258
GLOBALSTAR M078         
1 39076U 13005E   24343.88381998 -.00000090  00000+0  78912-4 0  9994
2 39076  51.9840 174.6656 0001881 105.8140 254.2934 12.62267458545888
GLOBALSTAR M095         
1 39077U 13005F   24343.91065600 -.00000085  00000+0  10406-3 0  9995
2 39077  51.9770 171.8783 0001481 112.8335 247.2688 12.62269481545742
GLOBALSTAR M087         
1 52888U 22064A   24343.87445244 -.00000077  00000+0  10406-3 0  9997
2 52888  51.9775 320.3742 0035695  37.5267 322.8112 13.30672356120880
